SAR-LUPE 2              
1 31797U 07030A   26193.87902252  .00005876  00000+0  94297-4 0  9993
2 31797  98.1061 301.5761 0004688 210.0933 150.0049 15.53529483 60922
SARAL                   
1 39086U 13009A   26193.80814309  .00000042  00000+0  31433-4 0  9996
2 39086  98.5554  20.0513 0001555 172.8072 187.3135 14.32895411699277
SAOCOM 1A               
1 43641U 18076A   26193.85755309 -.00000132  00000+0 -99730-5 0  9993
2 43641  97.8888  20.2335 0001444  83.2669 276.8708 14.82144984419906
SAUDISAT 5A             
1 43831U 18102A   26193.89829203  .00003456  00000+0  12784-3 0  9995
2 43831  97.3059 254.9855 0010625  50.9993 309.2191 15.28307094419605
SAUDISAT 5B             
1 43833U 18102C   26193.84746419  .00003298  00000+0  12122-3 0  9999
2 43833  97.3167 258.0519 0011407  52.5887 307.6389 15.28550776419718
RISAT-2B                
1 44233U 19028A   26193.68561153  .00000992  00000+0  82249-4 0  9990
2 44233  36.9959 202.8650 0008798 244.2908 115.6926 15.01077231391665
RISAT-2BR1              
1 44857U 19089F   26193.82086918  .00001787  00000+0  14287-3 0  9995
2 44857  36.9614 319.5174 0010017  26.1216 334.0030 15.01152988361054
SAOCOM 1B               
1 46265U 20059A   26193.82126140  .00000676  00000+0  91462-4 0  9998
2 46265  97.8892  19.2941 0001590  82.2213 277.9181 14.82159292317286
RISAT-2BR2              
1 46905U 20081A   26193.88514370  .00001687  00000+0  13496-3 0  9999
2 46905  36.8988  71.7101 0013706   1.1610 358.9161 15.01169364311331
RESURS-P 4              
1 59371U 24061A   26193.86382272  .00001815  00000+0  60677-4 0  9991
2 59371  97.2758 141.3189 0003214  92.8635 267.2975 15.32271921127691
